[{"OBJECT_NAME":"STARLINK-36921","OBJECT_ID":"2026-040E","EPOCH":"2026-03-27T20:16:56.692704","MEAN_MOTION":15.75256287,"ECCENTRICITY":0.0002417,"INCLINATION":97.2857,"RA_OF_ASC_NODE":36.1945,"ARG_OF_PERICENTER":65.8911,"MEAN_ANOMALY":294.2607,"EPHEMERIS_TYPE":0,"CLASSIFICATION_TYPE":"U","NORAD_CAT_ID":68019,"ELEMENT_SET_NO":999,"REV_AT_EPOCH":421,"BSTAR":0.0011253,"MEAN_MOTION_DOT":0.00171631,"MEAN_MOTION_DDOT":0},{"OBJECT_NAME":"STARLINK-36928","OBJECT_ID":"2026-040F","EPOCH":"2026-03-27T20:18:28.219680","MEAN_MOTION":15.75258323,"ECCENTRICITY":0.0001608,"INCLINATION":97.2862,"RA_OF_ASC_NODE":36.1914,"ARG_OF_PERICENTER":95.0995,"MEAN_ANOMALY":265.0454,"EPHEMERIS_TYPE":0,"CLASSIFICATION_TYPE":"U","NORAD_CAT_ID":68020,"ELEMENT_SET_NO":999,"REV_AT_EPOCH":421,"BSTAR":0.0014578,"MEAN_MOTION_DOT":0.00223768,"MEAN_MOTION_DDOT":0},{"OBJECT_NAME":"STARLINK-36858","OBJECT_ID":"2026-040G","EPOCH":"2026-03-24T12:55:13.776960","MEAN_MOTION":15.75331784,"ECCENTRICITY":0.00016946,"INCLINATION":97.2853,"RA_OF_ASC_NODE":32.8877,"ARG_OF_PERICENTER":78.8231,"MEAN_ANOMALY":281.3225,"EPHEMERIS_TYPE":0,"CLASSIFICATION_TYPE":"U","NORAD_CAT_ID":68021,"ELEMENT_SET_NO":999,"REV_AT_EPOCH":370,"BSTAR":0.0017848498,"MEAN_MOTION_DOT":0.00276588,"MEAN_MOTION_DDOT":0},{"OBJECT_NAME":"STARLINK-36916","OBJECT_ID":"2026-040H","EPOCH":"2026-03-27T20:00:01.999008","MEAN_MOTION":15.72356541,"ECCENTRICITY":0.0001459,"INCLINATION":97.2858,"RA_OF_ASC_NODE":36.1828,"ARG_OF_PERICENTER":93.9924,"MEAN_ANOMALY":202.2032,"EPHEMERIS_TYPE":0,"CLASSIFICATION_TYPE":"U","NORAD_CAT_ID":68022,"ELEMENT_SET_NO":999,"REV_AT_EPOCH":534,"BSTAR":-0.016449,"MEAN_MOTION_DOT":-0.01892105,"MEAN_MOTION_DDOT":0},{"OBJECT_NAME":"STARLINK-36871","OBJECT_ID":"2026-040J","EPOCH":"2026-03-27T20:14:54.453120","MEAN_MOTION":15.75237638,"ECCENTRICITY":8.51e-5,"INCLINATION":97.284,"RA_OF_ASC_NODE":36.1925,"ARG_OF_PERICENTER":123.5375,"MEAN_ANOMALY":236.5972,"EPHEMERIS_TYPE":0,"CLASSIFICATION_TYPE":"U","NORAD_CAT_ID":68023,"ELEMENT_SET_NO":999,"REV_AT_EPOCH":421,"BSTAR":0.0013198,"MEAN_MOTION_DOT":0.00201862,"MEAN_MOTION_DDOT":0},{"OBJECT_NAME":"STARLINK-36891","OBJECT_ID":"2026-040K","EPOCH":"2026-03-27T20:13:53.726016","MEAN_MOTION":15.75238981,"ECCENTRICITY":0.0001281,"INCLINATION":97.2867,"RA_OF_ASC_NODE":36.1942,"ARG_OF_PERICENTER":105.8458,"MEAN_ANOMALY":254.2948,"EPHEMERIS_TYPE":0,"CLASSIFICATION_TYPE":"U","NORAD_CAT_ID":68024,"ELEMENT_SET_NO":999,"REV_AT_EPOCH":421,"BSTAR":0.0011453,"MEAN_MOTION_DOT":0.00174611,"MEAN_MOTION_DDOT":0},{"OBJECT_NAME":"STARLINK-36378","OBJECT_ID":"2026-040L","EPOCH":"2026-03-27T20:11:51.740448","MEAN_MOTION":15.75268467,"ECCENTRICITY":0.0001688,"INCLINATION":97.2857,"RA_OF_ASC_NODE":36.1987,"ARG_OF_PERICENTER":114.0948,"MEAN_ANOMALY":246.0494,"EPHEMERIS_TYPE":0,"CLASSIFICATION_TYPE":"U","NORAD_CAT_ID":68025,"ELEMENT_SET_NO":999,"REV_AT_EPOCH":421,"BSTAR":0.0014943,"MEAN_MOTION_DOT":0.00229625,"MEAN_MOTION_DDOT":0},{"OBJECT_NAME":"STARLINK-36884","OBJECT_ID":"2026-040M","EPOCH":"2026-03-27T20:12:22.327776","MEAN_MOTION":15.75249298,"ECCENTRICITY":8.61e-5,"INCLINATION":97.2864,"RA_OF_ASC_NODE":36.1963,"ARG_OF_PERICENTER":85.4974,"MEAN_ANOMALY":274.639,"EPHEMERIS_TYPE":0,"CLASSIFICATION_TYPE":"U","NORAD_CAT_ID":68026,"ELEMENT_SET_NO":999,"REV_AT_EPOCH":421,"BSTAR":0.001381,"MEAN_MOTION_DOT":0.00211588,"MEAN_MOTION_DDOT":0},{"OBJECT_NAME":"STARLINK-36940","OBJECT_ID":"2026-040N","EPOCH":"2026-03-27T19:59:39.808032","MEAN_MOTION":15.75235329,"ECCENTRICITY":0.000158,"INCLINATION":97.2853,"RA_OF_ASC_NODE":36.215,"ARG_OF_PERICENTER":92.9808,"MEAN_ANOMALY":267.1638,"EPHEMERIS_TYPE":0,"CLASSIFICATION_TYPE":"U","NORAD_CAT_ID":68027,"ELEMENT_SET_NO":999,"REV_AT_EPOCH":421,"BSTAR":0.0017193,"MEAN_MOTION_DOT":0.00264956,"MEAN_MOTION_DDOT":0},{"OBJECT_NAME":"STARLINK-36253","OBJECT_ID":"2026-040P","EPOCH":"2026-03-27T20:00:01.999008","MEAN_MOTION":15.37747562,"ECCENTRICITY":0.0003205,"INCLINATION":97.3014,"RA_OF_ASC_NODE":35.6853,"ARG_OF_PERICENTER":96.5556,"MEAN_ANOMALY":113.847,"EPHEMERIS_TYPE":0,"CLASSIFICATION_TYPE":"U","NORAD_CAT_ID":68028,"ELEMENT_SET_NO":999,"REV_AT_EPOCH":544,"BSTAR":-0.058271,"MEAN_MOTION_DOT":-0.01930915,"MEAN_MOTION_DDOT":0},{"OBJECT_NAME":"STARLINK-36944","OBJECT_ID":"2026-040Q","EPOCH":"2026-03-27T20:10:50.546784","MEAN_MOTION":15.75277247,"ECCENTRICITY":0.0001223,"INCLINATION":97.2867,"RA_OF_ASC_NODE":36.1967,"ARG_OF_PERICENTER":105.1535,"MEAN_ANOMALY":254.9866,"EPHEMERIS_TYPE":0,"CLASSIFICATION_TYPE":"U","NORAD_CAT_ID":68029,"ELEMENT_SET_NO":999,"REV_AT_EPOCH":421,"BSTAR":0.0018394,"MEAN_MOTION_DOT":0.00284651,"MEAN_MOTION_DDOT":0},{"OBJECT_NAME":"STARLINK-36942","OBJECT_ID":"2026-040R","EPOCH":"2026-03-27T20:09:49.819680","MEAN_MOTION":15.75249802,"ECCENTRICITY":0.0001673,"INCLINATION":97.2847,"RA_OF_ASC_NODE":36.201,"ARG_OF_PERICENTER":102.7561,"MEAN_ANOMALY":257.3891,"EPHEMERIS_TYPE":0,"CLASSIFICATION_TYPE":"U","NORAD_CAT_ID":68030,"ELEMENT_SET_NO":999,"REV_AT_EPOCH":421,"BSTAR":0.0012662,"MEAN_MOTION_DOT":0.00193568,"MEAN_MOTION_DDOT":0},{"OBJECT_NAME":"STARLINK-36913","OBJECT_ID":"2026-040S","EPOCH":"2026-03-27T20:00:01.999008","MEAN_MOTION":15.67216608,"ECCENTRICITY":0.000154,"INCLINATION":97.2852,"RA_OF_ASC_NODE":36.1872,"ARG_OF_PERICENTER":101.7655,"MEAN_ANOMALY":196.7474,"EPHEMERIS_TYPE":0,"CLASSIFICATION_TYPE":"U","NORAD_CAT_ID":68031,"ELEMENT_SET_NO":999,"REV_AT_EPOCH":534,"BSTAR":-0.020277,"MEAN_MOTION_DOT":-0.01921715,"MEAN_MOTION_DDOT":0},{"OBJECT_NAME":"STARLINK-36935","OBJECT_ID":"2026-040T","EPOCH":"2026-03-27T20:01:41.962080","MEAN_MOTION":15.75241727,"ECCENTRICITY":0.0001302,"INCLINATION":97.286,"RA_OF_ASC_NODE":36.2096,"ARG_OF_PERICENTER":86.0552,"MEAN_ANOMALY":274.0862,"EPHEMERIS_TYPE":0,"CLASSIFICATION_TYPE":"U","NORAD_CAT_ID":68032,"ELEMENT_SET_NO":999,"REV_AT_EPOCH":421,"BSTAR":0.0011171,"MEAN_MOTION_DOT":0.00170242,"MEAN_MOTION_DDOT":0},{"OBJECT_NAME":"STARLINK-36947","OBJECT_ID":"2026-040U","EPOCH":"2026-03-27T20:07:47.895456","MEAN_MOTION":15.75259027,"ECCENTRICITY":0.000174,"INCLINATION":97.2847,"RA_OF_ASC_NODE":36.2026,"ARG_OF_PERICENTER":94.9034,"MEAN_ANOMALY":265.243,"EPHEMERIS_TYPE":0,"CLASSIFICATION_TYPE":"U","NORAD_CAT_ID":68033,"ELEMENT_SET_NO":999,"REV_AT_EPOCH":421,"BSTAR":0.0014452,"MEAN_MOTION_DOT":0.00221781,"MEAN_MOTION_DDOT":0},{"OBJECT_NAME":"STARLINK-36939","OBJECT_ID":"2026-040V","EPOCH":"2026-03-27T20:07:45.306048","MEAN_MOTION":15.69508589,"ECCENTRICITY":6.59e-5,"INCLINATION":97.2853,"RA_OF_ASC_NODE":36.2063,"ARG_OF_PERICENTER":96.4703,"MEAN_ANOMALY":263.6634,"EPHEMERIS_TYPE":0,"CLASSIFICATION_TYPE":"U","NORAD_CAT_ID":68034,"ELEMENT_SET_NO":999,"REV_AT_EPOCH":421,"BSTAR":-0.0080166,"MEAN_MOTION_DOT":-0.00850546,"MEAN_MOTION_DDOT":0},{"OBJECT_NAME":"STARLINK-36943","OBJECT_ID":"2026-040W","EPOCH":"2026-03-27T20:00:01.999008","MEAN_MOTION":15.75425976,"ECCENTRICITY":8.29e-5,"INCLINATION":97.2853,"RA_OF_ASC_NODE":36.2126,"ARG_OF_PERICENTER":59.3454,"MEAN_ANOMALY":292.2237,"EPHEMERIS_TYPE":0,"CLASSIFICATION_TYPE":"U","NORAD_CAT_ID":68035,"ELEMENT_SET_NO":999,"REV_AT_EPOCH":539,"BSTAR":-0.0028074,"MEAN_MOTION_DOT":-0.00403788,"MEAN_MOTION_DDOT":0}]
